1 20253U 89077A   26075.78254425 -.00000360  00000-0  00000+0 0  9999
2 20253  12.4468 351.7189 0008341 350.9449 238.9341  1.00281123259636
1 20776U 90079A   26075.85715123  .00000134  00000-0  00000+0 0  9996
2 20776  13.3696 350.4388 0003059  11.2158 154.7705  1.00276896129963
1 22787U 93056A   26073.50268183  .00000131  00000-0  00000-0 0  9995
2 22787  11.8626   4.0673 0011263 350.7252  26.9952  1.00268324117603
1 23467U 95003A   26076.09852383 -.00000015  00000-0  00000+0 0  9994
2 23467   9.6820  13.5307 0003741 344.9246  24.0382  1.00275143114036
1 23967U 96042A   26075.20264141 -.00000230  00000-0  00000-0 0  9994
2 23967  11.0280  17.5804 0003123 100.9925  97.9568  1.00242301108557
1 25639U 99009B   26075.36155854 -.00000016  00000-0  00000+0 0  9996
2 25639  12.0118   9.5990 0003633 287.1912 272.1678  0.99025586 50234
1 25967U 99063A   26076.13119729 -.00000181  00000-0  00000+0 0  9990
2 25967   9.8450  27.7156 0005021 306.2915 225.0874  1.00271064 96429
1 27168U 02001A   26075.77757020  .00000105  00000-0  00000+0 0  9997
2 27168  11.0697  22.4532 0099631   5.4811  85.2783  1.00274744 32035
1 28117U 03057A   26075.90310538 -.00000097  00000-0  00000+0 0  9999
2 28117   8.8662  34.2693 0003387 303.6375 237.1125  1.00272296 81522
1 30794U 07007B   26076.01194346 -.00000268  00000-0  00000+0 0  9992
2 30794   5.0670  74.8519 0003884 290.6475 268.5840  1.00273139 69771
1 32294U 07056B   26076.12891822  .00000144  00000-0  00000+0 0  9990
2 32294   5.0183  74.5926 0003920 280.2363 251.3374  1.00270965 67277
1 35943U 09054B   26076.14809737  .00000025  00000-0  00000+0 0  9998
2 35943   0.0545  88.0858 0003584 284.8782 278.0570  1.00272133 60381
1 36582U 10021B   26076.18239447  .00000088  00000-0  00000+0 0  9992
2 36582   0.0307 224.3584 0002490 143.5872 245.6687  1.00269394 58037
1 38098U 12011A   26076.14991737 -.00000059  00000-0  00000+0 0  9999
2 38098   0.0209 229.4818 0001615 136.5174 294.7802  1.00274021  6268
1 39034U 12075A   26076.11780836  .00000099  00000-0  00000+0 0  9996
2 39034   0.0715   3.7138 0003913 353.0693 273.0459  1.00273381 48233
1 40296U 14069A   26074.46069743  .00000133  00000-0  00000-0 0  9996
2 40296  63.4600 224.6188 6683698 271.1744  19.0531  2.00583031 83355
1 44453U 19046A   26076.00019434 -.00000016  00000-0  00000+0 0  9999
2 44453  63.0441  62.5647 7046625 274.6033  15.0643  2.00620007 48496
1 45254U 20015A   26075.74589580  .00000010  00000-0  00000+0 0  9994
2 45254  65.5026 328.8319 6887763 279.4573  14.7503  2.00605195 44435
1 52145U 22030A   26075.25758800  .00000275  00000-0  00000+0 0  9992
2 52145  62.6688 150.7250 6760595 272.9410  17.8286  2.00613306 29169